{"type": "FeatureCollection", "features": [ {"type": "Feature", "properties": {"norad_id": 32152, "name": "FENGYUN 1C DEB", "group": "fengyun-1c-debris", "lat": 15.001443116689302, "lon": 152.48616931438352, "alt_km": 742.0852654870914, "timestamp": "2025-12-19T08:58:49.623632+00:00", "meta": {"OBJECT_NAME": "FENGYUN 1C DEB", "OBJECT_ID": "1999-025CSW", "EPOCH": "2025-12-17T04:09:42.037344", "MEAN_MOTION": 14.5680707, "ECCENTRICITY": 0.00551751, "INCLINATION": 98.7605, "RA_OF_ASC_NODE": 152.5422, "ARG_OF_PERICENTER": 187.8049, "MEAN_ANOMALY": 172.2295, "EPHEMERIS_TYPE": 0, "CLASSIFICATION_TYPE": "U", "NORAD_CAT_ID": 32152, "ELEMENT_SET_NO": 999, "REV_AT_EPOCH": 62677, "BSTAR": 0.0015230894, "MEAN_MOTION_DOT": 6.914e-05, "MEAN_MOTION_DDOT": 0}, "tle": {"line1": "1 32152U 99025CSW 25351.17340321  .00006914  00000+0  15231-2 0  9998", "line2": "2 32152  98.7605 152.5422 0055175 187.8049 172.2295 14.56807070626775"}}, "geometry": {"type": "Point", "coordinates": [152.48616931438352, 15.001443116689302]}}, {"type": "Feature", "properties": {"norad_id": 32153, "name": "FENGYUN 1C DEB", "group": "fengyun-1c-debris", "lat": 28.31118327075351, "lon": 21.336049334641174, "alt_km": 631.8730089097289, "timestamp": "2025-12-19T08:58:49.623642+00:00", "meta": {"OBJECT_NAME": "FENGYUN 1C DEB", "OBJECT_ID": "1999-025CSX", "EPOCH": "2025-12-18T07:24:29.746368", "MEAN_MOTION": 14.48736583, "ECCENTRICITY": 0.02073761, "INCLINATION": 98.7685, "RA_OF_ASC_NODE": 195.4597, "ARG_OF_PERICENTER": 204.3967, "MEAN_ANOMALY": 154.7301, "EPHEMERIS_TYPE": 0, "CLASSIFICATION_TYPE": "U", "NORAD_CAT_ID": 32153, "ELEMENT_SET_NO": 999, "REV_AT_EPOCH": 97304, "BSTAR": 0.00026097678, "MEAN_MOTION_DOT": 1.233e-05, "MEAN_MOTION_DDOT": 0}, "tle": {"line1": "1 32153U 99025CSX 25352.30867762  .00001233  00000+0  26098-3 0  9991", "line2": "2 32153  98.7685 195.4597 0207376 204.3967 154.7301 14.48736583973048"}}, "geometry": {"type": "Point", "coordinates": [21.336049334641174, 28.31118327075351]}}, {"type": "Feature", "properties": {"norad_id": 32155, "name": "FENGYUN 1C DEB", "group": "fengyun-1c-debris", "lat": 61.14456477072062, "lon": 119.83230055856977, "alt_km": 786.5964399708664, "timestamp": "2025-12-19T08:58:49.623652+00:00", "meta": {"OBJECT_NAME": "FENGYUN 1C DEB", "OBJECT_ID": "1999-025CSZ", "EPOCH": "2025-12-14T12:47:50.436096", "MEAN_MOTION": 14.32956999, "ECCENTRICITY": 0.00690143, "INCLINATION": 98.952, "RA_OF_ASC_NODE": 278.2092, "ARG_OF_PERICENTER": 234.5934, "MEAN_ANOMALY": 124.879, "EPHEMERIS_TYPE": 0, "CLASSIFICATION_TYPE": "U", "NORAD_CAT_ID": 32155, "ELEMENT_SET_NO": 999, "REV_AT_EPOCH": 70248, "BSTAR": 0.00052873215, "MEAN_MOTION_DOT": 1.437e-05, "MEAN_MOTION_DDOT": 0}, "tle": {"line1": "1 32155U 99025CSZ 25348.53322264  .00001437  00000+0  52873-3 0  9992", "line2": "2 32155  98.9520 278.2092 0069014 234.5934 124.8790 14.32956999702480"}}, "geometry": {"type": "Point", "coordinates": [119.83230055856977, 61.14456477072062]}}, {"type": "Feature", "properties": {"norad_id": 32156, "name": "FENGYUN 1C DEB", "group": "fengyun-1c-debris", "lat": 74.03055062107434, "lon": 18.630648569461545, "alt_km": 752.3376293797273, "timestamp": "2025-12-19T08:58:49.623662+00:00", "meta": {"OBJECT_NAME": "FENGYUN 1C DEB", "OBJECT_ID": "1999-025CTA", "EPOCH": "2025-12-16T05:02:42.776448", "MEAN_MOTION": 14.3195706, "ECCENTRICITY": 0.00822162, "INCLINATION": 99.3543, "RA_OF_ASC_NODE": 160.0519, "ARG_OF_PERICENTER": 47.5484, "MEAN_ANOMALY": 313.261, "EPHEMERIS_TYPE": 0, "CLASSIFICATION_TYPE": "U", "NORAD_CAT_ID": 32156, "ELEMENT_SET_NO": 999, "REV_AT_EPOCH": 64870, "BSTAR": 0.00028213677, "MEAN_MOTION_DOT": 7.35e-06, "MEAN_MOTION_DDOT": 0}, "tle": {"line1": "1 32156U 99025CTA 25350.21021732  .00000735  00000+0  28214-3 0  9999", "line2": "2 32156  99.3543 160.0519 0082216  47.5484 313.2610 14.31957060648702"}}, "geometry": {"type": "Point", "coordinates": [18.630648569461545, 74.03055062107434]}}, {"type": "Feature", "properties": {"norad_id": 32160, "name": "FENGYUN 1C DEB", "group": "fengyun-1c-debris", "lat": 42.12837054569612, "lon": 142.6300330026226, "alt_km": 736.5825030413853, "timestamp": "2025-12-19T08:58:49.623672+00:00", "meta": {"OBJECT_NAME": "FENGYUN 1C DEB", "OBJECT_ID": "1999-025CTE", "EPOCH": "2025-12-18T04:23:15.615168", "MEAN_MOTION": 14.37582475, "ECCENTRICITY": 0.00818172, "INCLINATION": 98.8815, "RA_OF_ASC_NODE": 149.5303, "ARG_OF_PERICENTER": 342.8185, "MEAN_ANOMALY": 17.0234, "EPHEMERIS_TYPE": 0, "CLASSIFICATION_TYPE": "U", "NORAD_CAT_ID": 32160, "ELEMENT_SET_NO": 999, "REV_AT_EPOCH": 95965, "BSTAR": 0.00035922842, "MEAN_MOTION_DOT": 1.071e-05, "MEAN_MOTION_DDOT": 0}, "tle": {"line1": "1 32160U 99025CTE 25352.18281962  .00001071  00000+0  35923-3 0  9994", "line2": "2 32160  98.8815 149.5303 0081817 342.8185  17.0234 14.37582475959651"}}, "geometry": {"type": "Point", "coordinates": [142.6300330026226, 42.12837054569612]}}, {"type": "Feature", "properties": {"norad_id": 32161, "name": "FENGYUN 1C DEB", "group": "fengyun-1c-debris", "lat": 67.54069189989198, "lon": 75.70458043072607, "alt_km": 976.7722875115605, "timestamp": "2025-12-19T08:58:49.623682+00:00", "meta": {"OBJECT_NAME": "FENGYUN 1C DEB", "OBJECT_ID": "1999-025CTF", "EPOCH": "2025-12-18T13:48:11.600064", "MEAN_MOTION": 14.01879839, "ECCENTRICITY": 0.01354392, "INCLINATION": 98.8341, "RA_OF_ASC_NODE": 97.029, "ARG_OF_PERICENTER": 263.8401, "MEAN_ANOMALY": 94.7321, "EPHEMERIS_TYPE": 0, "CLASSIFICATION_TYPE": "U", "NORAD_CAT_ID": 32161, "ELEMENT_SET_NO": 999, "REV_AT_EPOCH": 63511, "BSTAR": 0.00041869271, "MEAN_MOTION_DOT": 6.46e-06, "MEAN_MOTION_DDOT": 0}, "tle": {"line1": "1 32161U 99025CTF 25352.57513426  .00000646  00000+0  41869-3 0  9994", "line2": "2 32161  98.8341  97.0290 0135439 263.8401  94.7321 14.01879839635116"}}, "geometry": {"type": "Point", "coordinates": [75.70458043072607, 67.54069189989198]}}, {"type": "Feature", "properties": {"norad_id": 32162, "name": "FENGYUN 1C DEB", "group": "fengyun-1c-debris", "lat": 77.66868208544966, "lon": -10.252483617595074, "alt_km": 666.6430770872003, "timestamp": "2025-12-19T08:58:49.623692+00:00", "meta": {"OBJECT_NAME": "FENGYUN 1C DEB", "OBJECT_ID": "1999-025CTG", "EPOCH": "2025-12-18T09:36:42.176160", "MEAN_MOTION": 14.62107639, "ECCENTRICITY": 0.00478844, "INCLINATION": 99.463, "RA_OF_ASC_NODE": 38.3597, "ARG_OF_PERICENTER": 153.8271, "MEAN_ANOMALY": 206.5361, "EPHEMERIS_TYPE": 0, "CLASSIFICATION_TYPE": "U", "NORAD_CAT_ID": 32162, "ELEMENT_SET_NO": 999, "REV_AT_EPOCH": 95001, "BSTAR": 0.0011169417, "MEAN_MOTION_DOT": 5.648e-05, "MEAN_MOTION_DDOT": 0}, "tle": {"line1": "1 32162U 99025CTG 25352.40048815  .00005648  00000+0  11169-2 0  9998", "line2": "2 32162  99.4630  38.3597 0047884 153.8271 206.5361 14.62107639950017"}}, "geometry": {"type": "Point", "coordinates": [-10.252483617595074, 77.66868208544966]}}, {"type": "Feature", "properties": {"norad_id": 32163, "name": "FENGYUN 1C DEB", "group": "fengyun-1c-debris", "lat": -15.19835514740298, "lon": 177.3780077821592, "alt_km": 789.4179318175493, "timestamp": "2025-12-19T08:58:49.623702+00:00", "meta": {"OBJECT_NAME": "FENGYUN 1C DEB", "OBJECT_ID": "1999-025CTH", "EPOCH": "2025-12-17T06:09:38.740032", "MEAN_MOTION": 14.43153942, "ECCENTRICITY": 0.00514789, "INCLINATION": 99.5454, "RA_OF_ASC_NODE": 357.6283, "ARG_OF_PERICENTER": 21.6081, "MEAN_ANOMALY": 338.7262, "EPHEMERIS_TYPE": 0, "CLASSIFICATION_TYPE": "U", "NORAD_CAT_ID": 32163, "ELEMENT_SET_NO": 999, "REV_AT_EPOCH": 61041, "BSTAR": 0.00073174998, "MEAN_MOTION_DOT": 2.443e-05, "MEAN_MOTION_DDOT": 0}, "tle": {"line1": "1 32163U 99025CTH 25351.25669838  .00002443  00000+0  73175-3 0  9991", "line2": "2 32163  99.5454 357.6283 0051478  21.6081 338.7262 14.43153942610419"}}, "geometry": {"type": "Point", "coordinates": [177.3780077821592, -15.19835514740298]}}, {"type": "Feature", "properties": {"norad_id": 32167, "name": "FENGYUN 1C DEB", "group": "fengyun-1c-debris", "lat": -75.22439671965765, "lon": 22.297261870675847, "alt_km": 815.1011001383795, "timestamp": "2025-12-19T08:58:49.623712+00:00", "meta": {"OBJECT_NAME": "FENGYUN 1C DEB", "OBJECT_ID": "1999-025CTM", "EPOCH": "2025-12-16T05:49:26.785632", "MEAN_MOTION": 14.30987892, "ECCENTRICITY": 0.01716497, "INCLINATION": 98.4935, "RA_OF_ASC_NODE": 344.7253, "ARG_OF_PERICENTER": 31.4386, "MEAN_ANOMALY": 329.6921, "EPHEMERIS_TYPE": 0, "CLASSIFICATION_TYPE": "U", "NORAD_CAT_ID": 32167, "ELEMENT_SET_NO": 999, "REV_AT_EPOCH": 62725, "BSTAR": 0.00039856594, "MEAN_MOTION_DOT": 1.185e-05, "MEAN_MOTION_DDOT": 0}, "tle": {"line1": "1 32167U 99025CTM 25350.24267113  .00001185  00000+0  39857-3 0  9994", "line2": "2 32167  98.4935 344.7253 0171649  31.4386 329.6921 14.30987892627255"}}, "geometry": {"type": "Point", "coordinates": [22.297261870675847, -75.22439671965765]}}, {"type": "Feature", "properties": {"norad_id": 32168, "name": "FENGYUN 1C DEB", "group": "fengyun-1c-debris", "lat": -7.561267052367238, "lon": -117.52397705457653, "alt_km": 797.0040021100776, "timestamp": "2025-12-19T08:58:49.623722+00:00", "meta": {"OBJECT_NAME": "FENGYUN 1C DEB", "OBJECT_ID": "1999-025CTN", "EPOCH": "2025-12-18T11:16:29.840448", "MEAN_MOTION": 13.86192927, "ECCENTRICITY": 0.02433814, "INCLINATION": 101.6567, "RA_OF_ASC_NODE": 62.9222, "ARG_OF_PERICENTER": 224.048, "MEAN_ANOMALY": 134.1048, "EPHEMERIS_TYPE": 0, "CLASSIFICATION_TYPE": "U", "NORAD_CAT_ID": 32168, "ELEMENT_SET_NO": 999, "REV_AT_EPOCH": 63559, "BSTAR": 0.0032413664, "MEAN_MOTION_DOT": 4.66e-05, "MEAN_MOTION_DDOT": 0}, "tle": {"line1": "1 32168U 99025CTN 25352.46978982  .00004660  00000+0  32414-2 0  9996", "line2": "2 32168 101.6567  62.9222 0243381 224.0480 134.1048 13.86192927635599"}}, "geometry": {"type": "Point", "coordinates": [-117.52397705457653, -7.561267052367238]}}]}